[{"OBJECT_NAME":"STARLINK-5048","OBJECT_ID":"2022-119AB","EPOCH":"2026-03-09T23:07:32.216448","MEAN_MOTION":15.08841882,"ECCENTRICITY":8.616e-5,"INCLINATION":53.2179,"RA_OF_ASC_NODE":313.0689,"ARG_OF_PERICENTER":69.4177,"MEAN_ANOMALY":290.6907,"EPHEMERIS_TYPE":0,"CLASSIFICATION_TYPE":"U","NORAD_CAT_ID":53911,"ELEMENT_SET_NO":999,"REV_AT_EPOCH":19186,"BSTAR":-8.024545e-6,"MEAN_MOTION_DOT":-4.15e-6,"MEAN_MOTION_DDOT":0},{"OBJECT_NAME":"SL-18 R\/B","OBJECT_ID":"2001-007B","EPOCH":"2026-03-09T23:25:11.323200","MEAN_MOTION":15.07301441,"ECCENTRICITY":0.00085554,"INCLINATION":97.6926,"RA_OF_ASC_NODE":87.6817,"ARG_OF_PERICENTER":353.225,"MEAN_ANOMALY":6.886,"EPHEMERIS_TYPE":0,"CLASSIFICATION_TYPE":"U","NORAD_CAT_ID":26703,"ELEMENT_SET_NO":999,"REV_AT_EPOCH":64619,"BSTAR":0.00021543689,"MEAN_MOTION_DOT":3.19e-5,"MEAN_MOTION_DDOT":0}]
